[{"OBJECT_NAME":"OBJECT B","OBJECT_ID":"2024-205B","EPOCH":"2026-03-09T23:46:05.115936","MEAN_MOTION":15.28158697,"ECCENTRICITY":0.00105957,"INCLINATION":97.4192,"RA_OF_ASC_NODE":146.9311,"ARG_OF_PERICENTER":34.0947,"MEAN_ANOMALY":326.0972,"EPHEMERIS_TYPE":0,"CLASSIFICATION_TYPE":"U","NORAD_CAT_ID":61895,"ELEMENT_SET_NO":999,"REV_AT_EPOCH":7352,"BSTAR":0.00054154807,"MEAN_MOTION_DOT":0.00014827,"MEAN_MOTION_DDOT":0},{"OBJECT_NAME":"STARLINK-36036","OBJECT_ID":"2025-270W","EPOCH":"2026-03-09T00:05:29.727456","MEAN_MOTION":15.2758616,"ECCENTRICITY":8.05e-5,"INCLINATION":43.0011,"RA_OF_ASC_NODE":59.8195,"ARG_OF_PERICENTER":74.7687,"MEAN_ANOMALY":285.3254,"EPHEMERIS_TYPE":0,"CLASSIFICATION_TYPE":"U","NORAD_CAT_ID":66608,"ELEMENT_SET_NO":999,"REV_AT_EPOCH":1744,"BSTAR":0.00096854664,"MEAN_MOTION_DOT":0.00026491,"MEAN_MOTION_DDOT":0}]
